[{"OBJECT_NAME":"STARLINK-6039","OBJECT_ID":"2023-058C","EPOCH":"2026-03-09T22:08:43.166976","MEAN_MOTION":15.04936757,"ECCENTRICITY":0.000205,"INCLINATION":97.6035,"RA_OF_ASC_NODE":70.4131,"ARG_OF_PERICENTER":83.2541,"MEAN_ANOMALY":276.8918,"EPHEMERIS_TYPE":0,"CLASSIFICATION_TYPE":"U","NORAD_CAT_ID":56319,"ELEMENT_SET_NO":999,"REV_AT_EPOCH":15781,"BSTAR":0.00092995507,"MEAN_MOTION_DOT":0.00013129,"MEAN_MOTION_DDOT":0},{"OBJECT_NAME":"MUSAT-2","OBJECT_ID":"2024-043B","EPOCH":"2026-03-09T22:04:01.255008","MEAN_MOTION":15.07177436,"ECCENTRICITY":0.0006495,"INCLINATION":97.8438,"RA_OF_ASC_NODE":205.4399,"ARG_OF_PERICENTER":314.3478,"MEAN_ANOMALY":45.7216,"EPHEMERIS_TYPE":0,"CLASSIFICATION_TYPE":"U","NORAD_CAT_ID":59099,"ELEMENT_SET_NO":999,"REV_AT_EPOCH":11013,"BSTAR":0.00067214198,"MEAN_MOTION_DOT":0.00010059,"MEAN_MOTION_DDOT":0}]
